0 DELTA 1 DEB
1 13537U 76077EK  13282.99261884  .00000011  00000-0  47265-3 0  8144
2 13537 101.9962 291.6528 0075327 332.3600 082.9343 12.26934601565327
0 DELTA 1 DEB
1 13537U 76077EK  13287.49988584 -.00000023  00000-0  17909-3 0  8165
2 13537 101.9954 295.9853 0075292 324.1426 191.4125 12.26935181565870
0 DELTA 1 DEB
1 13537U 76077EK  13289.53062443 -.00000024  00000-0  17125-3 0  8171
2 13537 101.9953 297.9371 0075282 320.4131 161.1627 12.26935365566121
0 DELTA 1 DEB
1 13537U 76077EK  13291.96501414 -.00000023  00000-0  17869-3 0  8182
2 13537 101.9958 300.2769 0075272 315.9811 113.7980 12.26935664566428
0 DELTA 1 DEB
1 13537U 76077EK  13294.00069134 -.00000018  00000-0  21781-3 0  8191
2 13537 101.9959 302.2334 0075261 312.2852 105.3219 12.26935584566672
0 DELTA 1 DEB
1 13537U 76077EK  13296.02906132 -.00000009  00000-0  29945-3 0  8205
2 13537 101.9960 304.1829 0075246 308.6027 064.5692 12.26935534566924
